ONEWEB-0349             
1 49281U 21090C   24272.41608313 -.00000045  00000+0 -14166-3 0  9990
2 49281  87.9261  39.1157 0001686 102.2580 257.8743 13.20772920147094
ONEWEB-0353             
1 49282U 21090D   24272.45688768  .00000236  00000+0  60208-3 0  9995
2 49282  87.8971  54.3360 0001759 105.2179 254.9146 13.14503791145246
ONEWEB-0356             
1 49283U 21090E   24272.86905991  .00000054  00000+0  10103-3 0  9998
2 49283  87.9267  39.0193 0000777  98.7153 261.4068 13.20770428148448
ONEWEB-0358             
1 49284U 21090F   24272.82326956 -.00000121  00000+0 -32847-3 0  9999
2 49284  87.9263  39.0160 0001541  90.6561 269.4749 13.20769383149165
ONEWEB-0359             
1 49285U 21090G   24272.89589537 -.00000147  00000+0 -39366-3 0  9994
2 49285  87.9262  39.0183 0001953  86.1210 274.0147 13.20770204149144
ONEWEB-0360             
1 49286U 21090H   24272.58336944  .00000020  00000+0  18121-4 0  9998
2 49286  87.9260  39.0852 0001850  95.0311 265.1034 13.20772427147135
ONEWEB-0361             
1 49287U 21090J   24272.86748582  .00000091  00000+0  19215-3 0  9997
2 49287  87.9262  39.0234 0001621 100.7791 259.3524 13.20771095148459
ONEWEB-0362             
1 49288U 21090K   24272.47560367 -.00002689  00000+0 -67501-2 0  9995
2 49288  87.9111  69.6321 0002368  91.7649 268.3755 13.19739560144258
